0 TITAN 3C TRANSTAGE DEB
1 26050U 65108AJ  13280.31956948 -.00000024  00000-0  70869-2 0  3816
2 26050 026.2562 225.0772 6604471 136.3307 004.4514 02.69589748141321
0 TITAN 3C TRANSTAGE DEB
1 26050U 65108AJ  13288.03486102 -.00000106  00000-0  70869-2 0  3825
2 26050 026.2587 222.0720 6602298 141.3986 292.2989 02.69591688141534
0 TITAN 3C TRANSTAGE DEB
1 26050U 65108AJ  13288.09895966 -.00000091  00000-0  82507-2 0  3839
2 26050 026.2532 222.0711 6603699 141.3807 354.5150 02.69591789141536
0 TITAN 3C TRANSTAGE DEB
1 26050U 65108AJ  13291.06604686 -.00000065  00000-0  64551-2 0  3848
2 26050 026.2542 220.9235 6603327 143.3137 354.1474 02.69593032141618
0 TITAN 3C TRANSTAGE DEB
1 26050U 65108AJ  13293.30285525 -.00000091  00000-0  25289-2 0  3859
2 26050 026.2540 220.0629 6603140 144.7579 005.0301 02.69593263141675
0 TITAN 3C TRANSTAGE DEB
1 26050U 65108AJ  13294.03278434 -.00000110  00000-0  10493-2 0  3865
2 26050 026.2531 219.7872 6603002 145.2197 353.4496 02.69594120141699
